H1 CPF 01  gfz 2022 03 05 13  5642 terrasarx 
H2 0702601  6201 31698    2022 03 05 12 59 42 2022 03 10 00 00 42   120 1 1  0 0 0
H9
10 0 59646   2862.000000  0    1635280.015   5436624.829  -3910475.186
10 0 59646   2982.000000  0    1653847.216   4846246.736  -4616106.446
10 0 59646   3102.000000  0    1632592.654   4171635.293  -5240913.556
10 0 59646   3222.000000  0    1570551.054   3425301.536  -5774052.154
10 0 59646   3342.000000  0    1467691.654   2620980.082  -6206294.650
10 0 59646   3462.000000  0    1324934.320   1773370.879  -6530178.225
10 0 59646   3582.000000  0    1144146.239    897870.513  -6740122.022
10 0 59646   3702.000000  0     928118.816     10295.161  -6832514.494
10 0 59646   3822.000000  0     680524.781   -873400.541  -6805768.354
10 0 59646   3942.000000  0     405856.416  -1737403.723  -6660343.316
10 0 59646   4062.000000  0     109346.683  -2566317.621  -6398738.580
10 0 59646   4182.000000  0    -203127.108  -3345430.228  -6025456.879
10 0 59646   4302.000000  0    -525155.813  -4060973.345  -5546934.607
10 0 59646   4422.000000  0    -849924.160  -4700365.611  -4971441.421
10 0 59646   4542.000000  0   -1170349.272  -5252438.256  -4308949.256
10 0 59646   4662.000000  0   -1479229.630  -5707638.200  -3570970.128
10 0 59646   4782.000000  0   -1769401.005  -6058203.589  -2770364.462
10 0 59646   4902.000000  0   -2033896.170  -6298307.881  -1921122.870
10 0 59646   5022.000000  0   -2266104.853  -6424169.175  -1038123.591
10 0 59646   5142.000000  0   -2459929.797  -6434120.522   -136869.256
10 0 59646   5262.000000  0   -2609935.029  -6328637.758    766791.436
10 0 59646   5382.000000  0   -2711482.085  -6110323.933   1656950.475
10 0 59646   5502.000000  0   -2760850.602  -5783850.680   2517929.804
10 0 59646   5622.000000  0   -2755339.916  -5355857.519   3334566.181
10 0 59646   5742.000000  0   -2693348.818  -4834812.286   4092485.040
10 0 59646   5862.000000  0   -2574432.067  -4230836.851   4778357.566
10 0 59646   5982.000000  0   -2399333.235  -3555502.763   5380136.744
10 0 59646   6102.000000  0   -2169991.867  -2821600.521   5887267.905
10 0 59646   6222.000000  0   -1889524.980  -2042890.278   6290869.118
10 0 59646   6342.000000  0   -1562184.246  -1233839.638   6583881.783
10 0 59646   6462.000000  0   -1193289.867   -409350.705   6761188.481
10 0 59646   6582.000000  0    -789143.503    415515.845   6819694.882
10 0 59646   6702.000000  0    -356920.952   1225814.460   6758380.782
10 0 59646   6822.000000  0      95455.291   2006985.241   6578317.320
10 0 59646   6942.000000  0     559461.103   2745115.465   6282649.229
10 0 59646   7062.000000  0    1026130.432   3427187.299   5876543.073
10 0 59646   7182.000000  0    1486227.194   4041309.772   5367102.572
10 0 59646   7302.000000  0    1930426.955   4576930.631   4763250.474
10 0 59646   7422.000000  0    2349505.922   5025024.450   4075577.767
10 0 59646   7542.000000  0    2734532.184   5378250.785   3316161.728
10 0 59646   7662.000000  0    3077056.164   5631083.071   2498357.841
10 0 59646   7782.000000  0    3369296.488   5779904.334   1636561.828
10 0 59646   7902.000000  0    3604313.529   5823060.755    745950.340
10 0 59646   8022.000000  0    3776167.918   5760877.437   -157792.914
10 0 59646   8142.000000  0    3880061.052   5595633.249  -1058762.056
10 0 59646   8262.000000  0    3912452.262   5331496.387  -1941116.936
10 0 59646   8382.000000  0    3871150.950   4974422.767  -2789369.303
10 0 59646   8502.000000  0    3755380.218   4532019.029  -3588660.536
10 0 59646   8622.000000  0    3565810.870   4013374.322  -4325024.036
10 0 59646   8742.000000  0    3304566.726   3428867.324  -4985627.096
10 0 59646   8862.000000  0    2975201.016   2789952.258  -5558990.115
10 0 59646   8982.000000  0    2582644.422   2108928.817  -6035177.493
10 0 59646   9102.000000  0    2133127.065   1398702.428  -6405959.400
10 0 59646   9222.000000  0    1634076.315    672539.255  -6664941.625
10 0 59646   9342.000000  0    1093993.922    -56178.312  -6807664.993
10 0 59646   9462.000000  0     522311.607   -774193.824  -6831675.376
10 0 59646   9582.000000  0     -70771.618  -1468612.770  -6736559.648
10 0 59646   9702.000000  0    -674466.282  -2127127.178  -6523951.331
10 0 59646   9822.000000  0   -1277583.799  -2738228.828  -6197507.150
10 0 59646   9942.000000  0   -1868739.045  -3291408.199  -5762850.496
10 0 59646  10062.000000  0   -2436560.355  -3777334.433  -5227484.449
10 0 59646  10182.000000  0   -2969905.982  -4188016.155  -4600674.899
10 0 59646  10302.000000  0   -3458083.169  -4516938.979  -3893300.956
10 0 59646  10422.000000  0   -3891063.677  -4759175.578  -3117675.332
10 0 59646  10542.000000  0   -4259692.603  -4911466.871  -2287337.132
10 0 59646  10662.000000  0   -4555885.380  -4972271.243  -1416818.770
10 0 59646  10782.000000  0   -4772807.592  -4941780.237   -521391.111
10 0 59646  10902.000000  0   -4905032.732  -4821899.796    383208.463
10 0 59646  11022.000000  0   -4948673.646  -4616196.856   1281060.053
10 0 59646  11142.000000  0   -4901483.183  -4329811.128   2156351.083
10 0 59646  11262.000000  0   -4762921.160  -3969334.651   2993663.916
10 0 59646  11382.000000  0   -4534186.690  -3542662.839   3778255.006
10 0 59646  11502.000000  0   -4218215.177  -3058821.088   4496320.504
10 0 59646  11622.000000  0   -3819639.053  -2527770.335   5135241.924
10 0 59646  11742.000000  0   -3344715.494  -1960198.648   5683806.061
10 0 59646  11862.000000  0   -2801223.575  -1367303.998   6132398.883
10 0 59646  11982.000000  0   -2198331.442   -760570.686   6473170.632
10 0 59646  12102.000000  0   -1546435.912   -151543.940   6700167.422
10 0 59646  12222.000000  0    -856979.197    448389.512   6809427.400
10 0 59646  12342.000000  0    -142247.781   1028212.653   6799045.314
10 0 59646  12462.000000  0     584846.129   1577479.944   6669203.943
10 0 59646  12582.000000  0    1310997.366   2086505.616   6422171.161
10 0 59646  12702.000000  0    2022750.482   2546534.379   6062261.992
10 0 59646  12822.000000  0    2706748.392   2949892.676   5595768.484
10 0 59646  12942.000000  0    3349984.851   3290119.558   5030856.654
10 0 59646  13062.000000  0    3940055.220   3562073.644   4377428.208
10 0 59646  13182.000000  0    4465398.151   3762013.131   3646952.469
10 0 59646  13302.000000  0    4915530.450   3887650.480   2852269.783
10 0 59646  13422.000000  0    5281262.291   3938175.933   2007363.199
10 0 59646  13542.000000  0    5554889.983   3914250.564   1127110.018
10 0 59646  13662.000000  0    5730361.542   3817969.567    227013.424
10 0 59646  13782.000000  0    5803409.926   3652795.346   -677079.228
10 0 59646  13902.000000  0    5771650.081   3423462.569  -1569264.214
10 0 59646  14022.000000  0    5634638.088   3135857.552  -2433869.367
10 0 59646  14142.000000  0    5393890.672   2796875.857  -3255735.271
10 0 59646  14262.000000  0    5052866.640   2414261.959  -4020484.304
10 0 59646  14382.000000  0    4616910.141   1996434.566  -4714773.655
10 0 59646  14502.000000  0    4093155.631   1552301.469  -5326524.120
10 0 59646  14622.000000  0    3490401.733   1091070.861  -5845122.100
10 0 59646  14742.000000  0    2818955.370    622062.446  -6261594.344
10 0 59646  14862.000000  0    2090449.223    154521.765  -6568751.727
10 0 59646  14982.000000  0    1317638.478   -302557.880  -6761301.676
10 0 59646  15102.000000  0     514179.146   -740604.404  -6835931.342
10 0 59646  15222.000000  0    -305610.816  -1151623.638  -6791357.470
10 0 59646  15342.000000  0   -1127000.081  -1528340.733  -6628345.088
10 0 59646  15462.000000  0   -1935102.319  -1864325.848  -6349696.806
10 0 59646  15582.000000  0   -2715140.268  -2154102.368  -5960209.338
10 0 59646  15702.000000  0   -3452710.231  -2393235.392  -5466599.592
10 0 59646  15822.000000  0   -4134046.670  -2578401.027  -4877401.284
10 0 59646  15942.000000  0   -4746281.902  -2707433.879  -4202828.606
10 0 59646  16062.000000  0   -5277693.923  -2779351.371  -3454609.408
10 0 59646  16182.000000  0   -5717938.877  -2794354.466  -2645789.593
10 0 59646  16302.000000  0   -6058262.096  -2753803.878  -1790510.198
10 0 59646  16422.000000  0   -6291681.807  -2660172.372   -903761.277
10 0 59646  16542.000000  0   -6413141.051  -2516973.442     -1116.340
10 0 59646  16662.000000  0   -6419622.880  -2328667.847    901546.860
10 0 59646  16782.000000  0   -6310225.997  -2100550.165   1788334.266
10 0 59646  16902.000000  0   -6086196.164  -1838618.096   2643625.420
10 0 59646  17022.000000  0   -5750914.019  -1549427.912   3452356.411
10 0 59646  17142.000000  0   -5309841.114  -1239939.963   4200292.928
10 0 59646  17262.000000  0   -4770421.544   -917357.619   4874285.225
10 0 59646  17382.000000  0   -4141947.084   -588965.119   5462498.195
10 0 59646  17502.000000  0   -3435389.296   -261967.683   5954617.531
10 0 59646  17622.000000  0   -2663199.197     56663.649   6342027.110
10 0 59646  17742.000000  0   -1839080.282    360337.522   6617953.812
10 0 59646  17862.000000  0    -977740.491    642975.088   6777579.578
10 0 59646  17982.000000  0     -94627.797    899129.792   6818119.914
10 0 59646  18102.000000  0     794346.524   1124091.002   6738868.860
10 0 59646  18222.000000  0    1673093.445   1313970.513   6541210.637
10 0 59646  18342.000000  0    2525636.418   1465770.095   6228596.773
10 0 59646  18462.000000  0    3336401.616   1577428.811   5806490.218
10 0 59646  18582.000000  0    4090505.142   1647849.711   5282275.247
10 0 59646  18702.000000  0    4774029.214   1676905.526   4665133.967
10 0 59646  18822.000000  0    5374285.737   1665424.125   3965893.266
10 0 59646  18942.000000  0    5880062.735   1615152.539   3196837.730
10 0 59646  19062.000000  0    6281841.683   1528700.567   2371493.466
10 0 59646  19182.000000  0    6571986.478   1409464.500   1504389.693
10 0 59646  19302.000000  0    6744896.595   1261533.845    610797.185
99
